[{"OBJECT_NAME":"STARLINK-35647","OBJECT_ID":"2025-257J","EPOCH":"2026-03-09T17:32:02.587200","MEAN_MOTION":15.30203663,"ECCENTRICITY":9.304e-5,"INCLINATION":53.1609,"RA_OF_ASC_NODE":216.5566,"ARG_OF_PERICENTER":90.4044,"MEAN_ANOMALY":269.7064,"EPHEMERIS_TYPE":0,"CLASSIFICATION_TYPE":"U","NORAD_CAT_ID":66388,"ELEMENT_SET_NO":999,"REV_AT_EPOCH":1973,"BSTAR":0.00083883129,"MEAN_MOTION_DOT":0.0002457,"MEAN_MOTION_DDOT":0},{"OBJECT_NAME":"FENGYUN 1C DEB","OBJECT_ID":"1999-025EGV","EPOCH":"2026-02-28T16:17:34.017216","MEAN_MOTION":14.9983724,"ECCENTRICITY":0.01801634,"INCLINATION":98.631,"RA_OF_ASC_NODE":214.8944,"ARG_OF_PERICENTER":42.5154,"MEAN_ANOMALY":318.9857,"EPHEMERIS_TYPE":0,"CLASSIFICATION_TYPE":"U","NORAD_CAT_ID":37427,"ELEMENT_SET_NO":999,"REV_AT_EPOCH":61490,"BSTAR":0.00040638516,"MEAN_MOTION_DOT":7.014e-5,"MEAN_MOTION_DDOT":0}]
